SatCatId,ObjectName,LaunchYear,OrbitalPeriod,LaunchMass,StatusCode,Inclination,Status,UcsData,OrbitClassEstimated,LaunchSiteCountry,Owner,UseType,Purpose,LaunchVehicleClass,TLE1,TLE2,MeanMotion,Eccentricity,OrbitClass
47829,STARLINK-2416,2021,95.59,260.0,+,53.05,Active,1,LEO,USA,USA,Commercial,Communications,Falcon,1 47829U 21018AU  23028.08523993  .00024360  00000+0  16476-2 0  9996,2 47829  53.0540 324.0386 0001467  81.1877 278.9278 15.06423131104807,15.06423131,0.0001467,LEO
47830,STARLINK-2419,2021,95.59,260.0,+,53.05,Active,1,LEO,USA,USA,Commercial,Communications,Falcon,1 47830U 21018AV  23027.81615412  .00002451  00000+0  18338-3 0  9993,2 47830  53.0539 325.2474 0001695  81.3938 278.7243 15.06397873105096,15.06397873,0.0001695,LEO
47831,STARLINK-2420,2021,95.59,260.0,+,53.05,Active,1,LEO,USA,USA,Commercial,Communications,Falcon,1 47831U 21018AW  23027.81660708 -.00001184  00000+0 -60614-4 0  9991,2 47831  53.0544 300.2357 0001202 111.7902 248.3215 15.06394687105507,15.06394687,0.0001202,LEO
47832,STARLINK-2422,2021,95.59,260.0,+,53.05,Active,1,LEO,USA,USA,Commercial,Communications,Falcon,1 47832U 21018AX  23028.10457266  .00011956  00000+0  81997-3 0  9990,2 47832  53.0525 313.9551 0001502 102.5990 257.5167 15.06408627104958,15.06408627,0.0001502,LEO
47833,STARLINK-2423,2021,95.59,260.0,+,53.06,Active,1,LEO,USA,USA,Commercial,Communications,Falcon,1 47833U 21018AY  23028.06402690  .00005425  00000+0  38284-3 0  9992,2 47833  53.0550 314.1267 0001171  87.6075 272.5048 15.06395788104940,15.06395788,0.0001171,LEO
47834,STARLINK-2424,2021,95.59,260.0,+,53.05,Active,1,LEO,USA,USA,Commercial,Communications,Falcon,1 47834U 21018AZ  23028.20777767  .00002016  00000+0  15414-3 0  9992,2 47834  53.0528 313.4910 0001435 111.9891 248.1251 15.06405940104962,15.0640594,0.0001435,LEO
47835,STARLINK-2425,2021,95.59,260.0,+,53.05,Active,1,LEO,USA,USA,Commercial,Communications,Falcon,1 47835U 21018BA  23028.03594039  .00000416  00000+0  46851-4 0  9995,2 47835  53.0518 319.3888 0001500 102.5815 257.5342 15.06397292104860,15.06397292,0.00015,LEO
47836,STARLINK-2426,2021,95.59,260.0,+,53.05,Active,1,LEO,USA,USA,Commercial,Communications,Falcon,1 47836U 21018BB  23028.09352730 -.00000395  00000+0 -76649-5 0  9999,2 47836  53.0537 314.0909 0001205  93.6542 266.4584 15.06389425104942,15.06389425,0.0001205,LEO
47837,STARLINK-2427,2021,95.59,260.0,+,53.05,Active,1,LEO,USA,USA,Commercial,Communications,Falcon,1 47837U 21018BC  23028.10273086  .00008000  00000+0  55540-3 0  9992,2 47837  53.0535 293.9602 0001578  87.5462 272.5707 15.06395778105238,15.06395778,0.0001578,LEO
47838,STARLINK-2429,2021,95.59,260.0,+,53.05,Active,1,LEO,USA,USA,Commercial,Communications,Falcon,1 47838U 21018BD  23028.04929026  .00002695  00000+0  19980-3 0  9990,2 47838  53.0519 314.2055 0001663  85.2166 274.9013 15.06393599104943,15.06393599,0.0001663,LEO
47839,STARLINK-2431,2021,95.59,260.0,+,53.05,Active,1,LEO,USA,USA,Commercial,Communications,Falcon,1 47839U 21018BE  23028.14419596  .00001982  00000+0  15191-3 0  9996,2 47839  53.0544 283.7673 0001155  97.6279 262.4841 15.06399643105382,15.06399643,0.0001155,LEO
47840,STARLINK-2432,2021,95.59,260.0,+,53.05,Active,1,LEO,USA,USA,Commercial,Communications,Falcon,1 47840U 21018BF  23028.15433267  .00004123  00000+0  29548-3 0  9991,2 47840  53.0518 293.7308 0001166  99.8551 260.2570 15.06402571105234,15.06402571,0.0001166,LEO
47841,STARLINK-2433,2021,95.59,260.0,+,53.05,Active,1,LEO,USA,USA,Commercial,Communications,Falcon,1 47841U 21018BG  23028.15064769  .00003748  00000+0  27036-3 0  9991,2 47841  53.0532 293.7411 0001251  84.3667 275.7465 15.06399683105231,15.06399683,0.0001251,LEO
47842,STARLINK-2434,2021,95.59,260.0,+,53.05,Active,1,LEO,USA,USA,Commercial,Communications,Falcon,1 47842U 21018BH  23028.07048193  .00006123  00000+0  42954-3 0  9992,2 47842  53.0528 324.1061 0002062 110.1678 249.9533 15.06403698104801,15.06403698,0.0002062,LEO
47843,STARLINK-2435,2021,95.59,260.0,+,53.05,Active,1,LEO,USA,USA,Commercial,Communications,Falcon,1 47843U 21018BJ  23028.10964293  .00000665  00000+0  63544-4 0  9999,2 47843  53.0522 318.9302 0001089 104.2689 255.8421 15.06399427104883,15.06399427,0.0001089,LEO
47844,STARLINK-2446,2021,95.59,260.0,+,53.05,Active,1,LEO,USA,USA,Commercial,Communications,Falcon,1 47844U 21018BK  23028.10824939 -.00000473  00000+0 -12875-4 0  9992,2 47844  53.0525 313.9334 0001200 108.2332 251.8787 15.06383425104951,15.06383425,0.00012,LEO
47845,STARLINK-2453,2021,95.59,260.0,+,53.05,Active,1,LEO,USA,USA,Commercial,Communications,Falcon,1 47845U 21018BL  23028.06034504  .00018608  00000+0  12644-2 0  9998,2 47845  53.0560 314.1466 0002105 100.6406 259.4820 15.06412922104949,15.06412922,0.0002105,LEO
47846,STARLINK-2456,2021,95.59,260.0,+,53.05,Active,1,LEO,USA,USA,Commercial,Communications,Falcon,1 47846U 21018BM  23028.05571433  .00000522  00000+0  53921-4 0  9996,2 47846  53.0535 314.1565 0001377  95.3032 264.8114 15.06392245104948,15.06392245,0.0001377,LEO
47851,SHIYAN 9 (SY-9),2021,1436.22,5000.0,+,19.14,Active,1,GSO,PRC,China,Government,Technology Development,Long March,1 47851U 21019A   23027.64977593 -.00000242  00000+0  10000-3 0  9994,2 47851  19.1370 318.3130 0014886   2.7442 185.9781  1.00263465 11720,1.00263465,0.0014886,GSO
47854,YAOGAN-31 K,2021,107.04,500.0,+,63.41,Active,1,LEO,PRC,China,Military,Earth Observation,Long March,1 47854U 21020A   23028.12702550 -.00000030  00000+0  10000-3 0  9997,2 47854  63.4070 192.6177 0063953 353.9533   6.0715 13.45245770 92288,13.4524577,0.0063953,LEO
47855,OBJECT B,2021,107.15,-1.0,+,63.41,Active,0,LEO,PRC,China,Unknown,Unknown,Unknown,1 47855U 21020B   23027.79644613  .00000035  00000+0  21331-3 0  9998,2 47855  63.4104 197.8635 0060654 356.9039   3.1602 13.43887092 92002,13.43887092,0.0060654,LEO
47856,YAOGAN-31 L,2021,107.04,500.0,+,63.41,Active,1,LEO,PRC,China,Military,Earth Observation,Long March,1 47856U 21020C   23028.12721722 -.00000030  00000+0  10000-3 0  9991,2 47856  63.4064 193.4620 0063674 353.9481   6.0772 13.45246877 92278,13.45246877,0.0063674,LEO
47857,YAOGAN-31 M,2021,107.04,500.0,+,63.41,Active,1,LEO,PRC,China,Military,Earth Observation,Long March,1 47857U 21020D   23028.12724189 -.00000030  00000+0  10000-3 0  9992,2 47857  63.4073 192.6394 0063841 354.0397   5.9867 13.45247111 92288,13.45247111,0.0063841,LEO
47860,STARLINK-2258,2021,95.59,260.0,+,53.06,Active,1,LEO,USA,USA,Commercial,Communications,Falcon,1 47860U 21021A   23028.26030283  .00001720  00000+0  13433-3 0  9996,2 47860  53.0553 343.2385 0001424  93.2839 266.8313 15.06405081104274,15.06405081,0.0001424,LEO
47861,STARLINK-2280,2021,95.59,260.0,+,53.06,Active,1,LEO,USA,USA,Commercial,Communications,Falcon,1 47861U 21021B   23028.21192292  .00002567  00000+0  19118-3 0  9997,2 47861  53.0547 328.4498 0001392 125.9617 234.1501 15.06395128104489,15.06395128,0.0001392,LEO
47862,STARLINK-2291,2021,95.59,260.0,+,53.05,Active,1,LEO,USA,USA,Commercial,Communications,Falcon,1 47862U 21021C   23028.19211134  .00001577  00000+0  12472-3 0  9998,2 47862  53.0531 323.5610 0001523 111.5362 248.5790 15.06400679104554,15.06400679,0.0001523,LEO
47863,STARLINK-2293,2021,95.59,260.0,+,53.05,Active,1,LEO,USA,USA,Commercial,Communications,Falcon,1 47863U 21021D   23027.81892595  .00014506  00000+0  99066-3 0  9993,2 47863  53.0549 335.2333 0001338  71.4952 288.6182 15.06401889104845,15.06401889,0.0001338,LEO
47864,STARLINK-2304,2021,95.59,260.0,+,53.05,Active,1,LEO,USA,USA,Commercial,Communications,Falcon,1 47864U 21021E   23028.26215536  .00008610  00000+0  59614-3 0  9992,2 47864  53.0524 323.2963 0001509 103.5665 256.5492 15.06402426104557,15.06402426,0.0001509,LEO
47865,STARLINK-2310,2021,95.59,260.0,+,53.05,Active,1,LEO,USA,USA,Commercial,Communications,Falcon,1 47865U 21021F   23027.12870136  .00004166  00000+0  29839-3 0  9998,2 47865  53.0514 338.3302 0001568  93.0823 267.0345 15.06400821104848,15.06400821,0.0001568,LEO
47866,STARLINK-2320,2021,95.59,-1.0,+,53.05,Active,0,LEO,USA,USA,Unknown,Unknown,Falcon,1 47866U 21021G   23028.26122623  .00014938  00000+0  10189-2 0  9991,2 47866  53.0531 333.2497 0001469  88.0761 272.0396 15.06425975104436,15.06425975,0.0001469,LEO
47867,STARLINK-2321,2021,95.59,260.0,+,53.05,Active,1,LEO,USA,USA,Commercial,Communications,Falcon,1 47867U 21021H   23028.12208467  .00002105  00000+0  16017-3 0  9998,2 47867  53.0526 323.8774 0001371 109.2001 250.9136 15.06397969104550,15.06397969,0.0001371,LEO
47868,STARLINK-2323,2021,95.59,260.0,+,53.05,Active,1,LEO,USA,USA,Commercial,Communications,Falcon,1 47868U 21021J   23028.04927736  .00007253  00000+0  50513-3 0  9995,2 47868  53.0522 274.1990 0001257  83.6044 276.5088 15.06412142105248,15.06412142,0.0001257,LEO
47869,STARLINK-2324,2021,95.59,260.0,+,53.06,Active,1,LEO,USA,USA,Commercial,Communications,Falcon,1 47869U 21021K   23028.11839707  .00002317  00000+0  17442-3 0  9994,2 47869  53.0560 323.8815 0001310  94.0378 266.0761 15.06398884104556,15.06398884,0.000131,LEO
47870,STARLINK-2326,2021,95.59,260.0,+,53.05,Active,1,LEO,USA,USA,Commercial,Communications,Falcon,1 47870U 21021L   23027.27385554  .00001804  00000+0  13995-3 0  9997,2 47870  53.0547 352.6811 0001509  83.1593 276.9568 15.06400231104440,15.06400231,0.0001509,LEO
47871,STARLINK-2327,2021,95.59,260.0,+,53.05,Active,1,LEO,USA,USA,Commercial,Communications,Falcon,1 47871U 21021M   23028.18105767  .00006561  00000+0  45892-3 0  9991,2 47871  53.0542 323.6050 0001616  91.3051 268.8123 15.06404282104568,15.06404282,0.0001616,LEO
47872,STARLINK-2328,2021,91.33,260.0,+,53.05,Active,1,LEO,USA,USA,Commercial,Communications,Falcon,1 47872U 21021N   23027.71491991  .00007680  00000+0  50863-4 0  9995,2 47872  53.0476 177.9052 0001196  44.7447 315.3668 15.76733338107054,15.76733338,0.0001196,LEO
